[{"OBJECT_NAME":"STARLINK-30527","OBJECT_ID":"2023-153S","EPOCH":"2026-03-09T09:19:53.394816","MEAN_MOTION":15.27585536,"ECCENTRICITY":0.00028423,"INCLINATION":43.0021,"RA_OF_ASC_NODE":200.0773,"ARG_OF_PERICENTER":280.8447,"MEAN_ANOMALY":79.2084,"EPHEMERIS_TYPE":0,"CLASSIFICATION_TYPE":"U","NORAD_CAT_ID":58007,"ELEMENT_SET_NO":999,"REV_AT_EPOCH":13741,"BSTAR":6.8950262e-5,"MEAN_MOTION_DOT":1.635e-5,"MEAN_MOTION_DDOT":0},{"OBJECT_NAME":"FLOCK 4G-30","OBJECT_ID":"2025-009BY","EPOCH":"2026-03-09T17:00:32.842080","MEAN_MOTION":15.27244548,"ECCENTRICITY":0.00037948,"INCLINATION":97.3969,"RA_OF_ASC_NODE":150.6012,"ARG_OF_PERICENTER":342.4152,"MEAN_ANOMALY":17.6955,"EPHEMERIS_TYPE":0,"CLASSIFICATION_TYPE":"U","NORAD_CAT_ID":62679,"ELEMENT_SET_NO":999,"REV_AT_EPOCH":12134,"BSTAR":0.00049474629,"MEAN_MOTION_DOT":0.00013147,"MEAN_MOTION_DDOT":0}]
